SL-16 R/B               
1 25400U 98043G   26053.15531448  .00000063  00000+0  45474-4 0  9998
2 25400  98.8228   6.4112 0010850  62.1067 298.1210 14.26045755436779
SL-16 R/B               
1 25407U 98045B   26052.89263545  .00000029  00000+0  38738-4 0  9994
2 25407  71.0099 214.7927 0005907  34.7936 325.3572 14.16191178424861
ISS (ZARYA)             
1 25544U 98067A   26052.76529868  .00010666  00000+0  20704-3 0  9990
2 25544  51.6320 151.0701 0008512 119.8639 240.3195 15.48189327553866
CZ-4B R/B               
1 25732U 99025C   26053.06812697  .00000020  00000+0  30204-4 0  9993
2 25732  98.6661  97.7173 0037580  31.3870 358.6141 14.18261916385953
OKEAN-O                 
1 25860U 99039A   26053.17294284  .00000542  00000+0  78003-4 0  9996
2 25860  97.9478 113.2195 0001652  77.8465 282.2932 14.80307569432099
SL-16 R/B               
1 25861U 99039B   26053.16745122  .00000445  00000+0  63344-4 0  9992
2 25861  98.0002 112.2845 0013689 311.1547  48.8484 14.81707293434565
DELTA 2 R/B             
1 25876U 99041E   26053.00881622  .00001435  00000+0  26856-3 0  9996
2 25876  51.7661   3.9036 0502221 302.1292  53.1836 14.11776786360810
HELIOS 1B               
1 25977U 99064A   26053.10940743  .00001529  00000+0  17460-3 0  9999
2 25977  98.1712 314.8939 0002400  96.2295 263.9194 14.87626954682941
TERRA                   
1 25994U 99068A   26053.09432546  .00000354  00000+0  81174-4 0  9996
2 25994  97.9628 107.1222 0001594 194.7341 195.4309 14.60996014392808
SL-16 R/B               
1 26070U 00006B   26053.18654675  .00000125  00000+0  87861-4 0  9990
2 26070  71.0021 130.4365 0017764 211.5710 148.4349 14.15818868346367
TITAN 4B R/B            
1 26474U 00047B   26053.12505657  .00002811  00000+0  18099-3 0  9992
2 26474  67.9878  84.2738 0037649  54.1704 306.2933 15.09407334390567
ENVISAT                 
1 27386U 02009A   26052.81968631  .00000108  00000+0  48888-4 0  9992
2 27386  98.3701   6.7976 0001349  86.5831 289.4333 14.39030351256890
